CCSDS_OMM_VERS = 2.0
CREATION_DATE  = 
ORIGINATOR     = 

OBJECT_NAME    = PROGRESS-MS 32
OBJECT_ID      = 2025-204A
CENTER_NAME    = EARTH
REF_FRAME      = TEME
TIME_SYSTEM    = UTC
MEAN_ELEMENT_THEORY = SGP/SGP4

EPOCH          = 2025-12-01T13:49:44.445504
MEAN_MOTION    = 15.49226524
ECCENTRICITY   = .00036473
INCLINATION    = 51.6309
RA_OF_ASC_NODE = 197.7449
ARG_OF_PERICENTER = 190.9481
MEAN_ANOMALY   = 169.1428

EPHEMERIS_TYPE = 0
CLASSIFICATION_TYPE = U
NORAD_CAT_ID   = 65586
ELEMENT_SET_NO = 999
REV_AT_EPOCH   = 27
BSTAR          = .16365535E-3
MEAN_MOTION_DOT = .8648E-4
MEAN_MOTION_DDOT = 0

CCSDS_OMM_VERS = 2.0
CREATION_DATE  = 
ORIGINATOR     = 

OBJECT_NAME    = CYGNUS NG-23
OBJECT_ID      = 2025-208A
CENTER_NAME    = EARTH
REF_FRAME      = TEME
TIME_SYSTEM    = UTC
MEAN_ELEMENT_THEORY = SGP/SGP4

EPOCH          = 2025-12-01T13:49:44.445504
MEAN_MOTION    = 15.49226524
ECCENTRICITY   = .00036473
INCLINATION    = 51.6309
RA_OF_ASC_NODE = 197.7449
ARG_OF_PERICENTER = 190.9481
MEAN_ANOMALY   = 169.1428

EPHEMERIS_TYPE = 0
CLASSIFICATION_TYPE = U
NORAD_CAT_ID   = 65616
ELEMENT_SET_NO = 999
REV_AT_EPOCH   = 22
BSTAR          = .16365535E-3
MEAN_MOTION_DOT = .8648E-4
MEAN_MOTION_DDOT = 0

CCSDS_OMM_VERS = 2.0
CREATION_DATE  = 
ORIGINATOR     = 

OBJECT_NAME    = DRAGONFLY
OBJECT_ID      = 1998-067XH
CENTER_NAME    = EARTH
REF_FRAME      = TEME
TIME_SYSTEM    = UTC
MEAN_ELEMENT_THEORY = SGP/SGP4

EPOCH          = 2025-12-01T23:30:55.050912
MEAN_MOTION    = 15.67818176
ECCENTRICITY   = .000649
INCLINATION    = 51.6258
RA_OF_ASC_NODE = 190.6875
ARG_OF_PERICENTER = 211.6531
MEAN_ANOMALY   = 148.4075

EPHEMERIS_TYPE = 0
CLASSIFICATION_TYPE = U
NORAD_CAT_ID   = 65729
ELEMENT_SET_NO = 999
REV_AT_EPOCH   = 1147
BSTAR          = .11889E-2
MEAN_MOTION_DOT = .135201E-2
MEAN_MOTION_DDOT = 0

CCSDS_OMM_VERS = 2.0
CREATION_DATE  = 
ORIGINATOR     = 

OBJECT_NAME    = 1998-067XJ
OBJECT_ID      = 1998-067XJ
CENTER_NAME    = EARTH
REF_FRAME      = TEME
TIME_SYSTEM    = UTC
MEAN_ELEMENT_THEORY = SGP/SGP4

EPOCH          = 2025-12-01T20:03:18.916704
MEAN_MOTION    = 16.13832998
ECCENTRICITY   = .0010756
INCLINATION    = 51.6109
RA_OF_ASC_NODE = 185.8826
ARG_OF_PERICENTER = 242.8010
MEAN_ANOMALY   = 117.1910

EPHEMERIS_TYPE = 0
CLASSIFICATION_TYPE = U
NORAD_CAT_ID   = 65730
ELEMENT_SET_NO = 999
REV_AT_EPOCH   = 1152
BSTAR          = .27371E-2
MEAN_MOTION_DOT = .2710772E-1
MEAN_MOTION_DDOT = .14802E-1

CCSDS_OMM_VERS = 2.0
CREATION_DATE  = 
ORIGINATOR     = 

OBJECT_NAME    = 1998-067XK
OBJECT_ID      = 1998-067XK
CENTER_NAME    = EARTH
REF_FRAME      = TEME
TIME_SYSTEM    = UTC
MEAN_ELEMENT_THEORY = SGP/SGP4

EPOCH          = 2025-12-02T00:03:56.466432
MEAN_MOTION    = 15.63227370
ECCENTRICITY   = .0005955
INCLINATION    = 51.6290
RA_OF_ASC_NODE = 191.6009
ARG_OF_PERICENTER = 184.5035
MEAN_ANOMALY   = 175.5906

EPHEMERIS_TYPE = 0
CLASSIFICATION_TYPE = U
NORAD_CAT_ID   = 65731
ELEMENT_SET_NO = 999
REV_AT_EPOCH   = 1146
BSTAR          = .92099E-3
MEAN_MOTION_DOT = .86466E-3
MEAN_MOTION_DDOT = 0

CCSDS_OMM_VERS = 2.0
CREATION_DATE  = 
ORIGINATOR     = 

OBJECT_NAME    = RSP-03
OBJECT_ID      = 1998-067XL
CENTER_NAME    = EARTH
REF_FRAME      = TEME
TIME_SYSTEM    = UTC
MEAN_ELEMENT_THEORY = SGP/SGP4

EPOCH          = 2025-12-02T00:35:43.430208
MEAN_MOTION    = 15.65401132
ECCENTRICITY   = .0006817
INCLINATION    = 51.6275
RA_OF_ASC_NODE = 190.9915
ARG_OF_PERICENTER = 187.4004
MEAN_ANOMALY   = 172.6892

EPHEMERIS_TYPE = 0
CLASSIFICATION_TYPE = U
NORAD_CAT_ID   = 65732
ELEMENT_SET_NO = 999
REV_AT_EPOCH   = 1148
BSTAR          = .10736E-2
MEAN_MOTION_DOT = .110336E-2
MEAN_MOTION_DDOT = 0

CCSDS_OMM_VERS = 2.0
CREATION_DATE  = 
ORIGINATOR     = 

OBJECT_NAME    = GHS-01
OBJECT_ID      = 1998-067XM
CENTER_NAME    = EARTH
REF_FRAME      = TEME
TIME_SYSTEM    = UTC
MEAN_ELEMENT_THEORY = SGP/SGP4

EPOCH          = 2025-12-01T21:13:00.819264
MEAN_MOTION    = 15.69713992
ECCENTRICITY   = .0007058
INCLINATION    = 51.6283
RA_OF_ASC_NODE = 190.8036
ARG_OF_PERICENTER = 210.2396
MEAN_ANOMALY   = 149.8194

EPHEMERIS_TYPE = 0
CLASSIFICATION_TYPE = U
NORAD_CAT_ID   = 65733
ELEMENT_SET_NO = 999
REV_AT_EPOCH   = 1147
BSTAR          = .13342E-2
MEAN_MOTION_DOT = .164761E-2
MEAN_MOTION_DDOT = 0

CCSDS_OMM_VERS = 2.0
CREATION_DATE  = 
ORIGINATOR     = 

OBJECT_NAME    = YOTSUBA-KULOVER
OBJECT_ID      = 1998-067XN
CENTER_NAME    = EARTH
REF_FRAME      = TEME
TIME_SYSTEM    = UTC
MEAN_ELEMENT_THEORY = SGP/SGP4

EPOCH          = 2025-12-01T14:52:06.534912
MEAN_MOTION    = 15.57565098
ECCENTRICITY   = .00022157
INCLINATION    = 51.6287
RA_OF_ASC_NODE = 195.7889
ARG_OF_PERICENTER = 159.9481
MEAN_ANOMALY   = 200.1599

EPHEMERIS_TYPE = 0
CLASSIFICATION_TYPE = U
NORAD_CAT_ID   = 65941
ELEMENT_SET_NO = 999
REV_AT_EPOCH   = 812
BSTAR          = .79143347E-3
MEAN_MOTION_DOT = .59437E-3
MEAN_MOTION_DDOT = 0

CCSDS_OMM_VERS = 2.0
CREATION_DATE  = 
ORIGINATOR     = 

OBJECT_NAME    = BOTAN
OBJECT_ID      = 1998-067XP
CENTER_NAME    = EARTH
REF_FRAME      = TEME
TIME_SYSTEM    = UTC
MEAN_ELEMENT_THEORY = SGP/SGP4

EPOCH          = 2025-12-01T00:07:46.260192
MEAN_MOTION    = 15.59944090
ECCENTRICITY   = .00045874
INCLINATION    = 51.6292
RA_OF_ASC_NODE = 198.4381
ARG_OF_PERICENTER = 161.3348
MEAN_ANOMALY   = 198.7814

EPHEMERIS_TYPE = 0
CLASSIFICATION_TYPE = U
NORAD_CAT_ID   = 65942
ELEMENT_SET_NO = 999
REV_AT_EPOCH   = 803
BSTAR          = .10535817E-2
MEAN_MOTION_DOT = .87116E-3
MEAN_MOTION_DDOT = 0

CCSDS_OMM_VERS = 2.0
CREATION_DATE  = 
ORIGINATOR     = 

OBJECT_NAME    = E-KAGAKU-1
OBJECT_ID      = 1998-067XQ
CENTER_NAME    = EARTH
REF_FRAME      = TEME
TIME_SYSTEM    = UTC
MEAN_ELEMENT_THEORY = SGP/SGP4

EPOCH          = 2025-12-01T01:00:17.648352
MEAN_MOTION    = 15.57460747
ECCENTRICITY   = .00037303
INCLINATION    = 51.6301
RA_OF_ASC_NODE = 198.6831
ARG_OF_PERICENTER = 140.2253
MEAN_ANOMALY   = 219.9013

EPHEMERIS_TYPE = 0
CLASSIFICATION_TYPE = U
NORAD_CAT_ID   = 65943
ELEMENT_SET_NO = 999
REV_AT_EPOCH   = 803
BSTAR          = .8573363E-3
MEAN_MOTION_DOT = .64224E-3
MEAN_MOTION_DDOT = 0

CCSDS_OMM_VERS = 2.0
CREATION_DATE  = 
ORIGINATOR     = 

OBJECT_NAME    = HRC MONOBLOCK CAMERA
OBJECT_ID      = 1998-067XR
CENTER_NAME    = EARTH
REF_FRAME      = TEME
TIME_SYSTEM    = UTC
MEAN_ELEMENT_THEORY = SGP/SGP4

EPOCH          = 2025-12-01T21:49:03.450144
MEAN_MOTION    = 15.53098539
ECCENTRICITY   = .0004502
INCLINATION    = 51.6296
RA_OF_ASC_NODE = 195.4677
ARG_OF_PERICENTER = 140.5660
MEAN_ANOMALY   = 219.5658

EPHEMERIS_TYPE = 0
CLASSIFICATION_TYPE = U
NORAD_CAT_ID   = 66052
ELEMENT_SET_NO = 999
REV_AT_EPOCH   = 715
BSTAR          = .57466E-3
MEAN_MOTION_DOT = .36347E-3
MEAN_MOTION_DDOT = 0

CCSDS_OMM_VERS = 2.0
CREATION_DATE  = 
ORIGINATOR     = 

OBJECT_NAME    = HTV-X1
OBJECT_ID      = 2025-241A
CENTER_NAME    = EARTH
REF_FRAME      = TEME
TIME_SYSTEM    = UTC
MEAN_ELEMENT_THEORY = SGP/SGP4

EPOCH          = 2025-12-01T13:49:44.445504
MEAN_MOTION    = 15.49226524
ECCENTRICITY   = .00036473
INCLINATION    = 51.6309
RA_OF_ASC_NODE = 197.7449
ARG_OF_PERICENTER = 190.9481
MEAN_ANOMALY   = 169.1428

EPHEMERIS_TYPE = 0
CLASSIFICATION_TYPE = U
NORAD_CAT_ID   = 66174
ELEMENT_SET_NO = 999
REV_AT_EPOCH   = 51
BSTAR          = .16365535E-3
MEAN_MOTION_DOT = .8648E-4
MEAN_MOTION_DDOT = 0

