PROGRESS-MS 32          
1 65586U 25204A   25335.57620886  .00008648  00000+0  16366-3 0  9993
2 65586  51.6309 197.7449 0003647 190.9481 169.1428 15.49226524   279
CYGNUS NG-23            
1 65616U 25208A   25335.57620886  .00008648  00000+0  16366-3 0  9991
2 65616  51.6309 197.7449 0003647 190.9481 169.1428 15.49226524   228
DRAGONFLY               
1 65729U 98067XH  25335.97980383  .00135201  00000+0  11889-2 0  9994
2 65729  51.6258 190.6875 0006490 211.6531 148.4075 15.67818176 11474
1998-067XJ              
1 65730U 98067XJ  25335.83563561  .02710772  14802-1  27371-2 0  9990
2 65730  51.6109 185.8826 0010756 242.8010 117.1910 16.13832998 11528
1998-067XK              
1 65731U 98067XK  25336.00273688  .00086466  00000+0  92099-3 0  9996
2 65731  51.6290 191.6009 0005955 184.5035 175.5906 15.63227370 11464
RSP-03                  
1 65732U 98067XL  25336.02480822  .00110336  00000+0  10736-2 0  9990
2 65732  51.6275 190.9915 0006817 187.4004 172.6892 15.65401132 11488
GHS-01                  
1 65733U 98067XM  25335.88403726  .00164761  00000+0  13342-2 0  9999
2 65733  51.6283 190.8036 0007058 210.2396 149.8194 15.69713992 11472
YOTSUBA-KULOVER         
1 65941U 98067XN  25335.61952008  .00059437  00000+0  79143-3 0  9998
2 65941  51.6287 195.7889 0002215 159.9481 200.1599 15.57565098  8128
BOTAN                   
1 65942U 98067XP  25335.00539653  .00087116  00000+0  10536-2 0  9994
2 65942  51.6292 198.4381 0004587 161.3348 198.7814 15.59944090  8032
E-KAGAKU-1              
1 65943U 98067XQ  25335.04187093  .00064224  00000+0  85734-3 0  9994
2 65943  51.6301 198.6831 0003730 140.2253 219.9013 15.57460747  8033
HRC MONOBLOCK CAMERA    
1 66052U 98067XR  25335.90906771  .00036347  00000+0  57466-3 0  9999
2 66052  51.6296 195.4677 0004502 140.5660 219.5658 15.53098539  7159
HTV-X1                  
1 66174U 25241A   25335.57620886  .00008648  00000+0  16366-3 0  9998
2 66174  51.6309 197.7449 0003647 190.9481 169.1428 15.49226524   510
